[{"OBJECT_NAME":"BLACKJACK ACES-3","OBJECT_ID":"2023-084U","EPOCH":"2026-04-27T08:37:51.137760","MEAN_MOTION":15.18338111,"ECCENTRICITY":0.0003756,"INCLINATION":97.6128,"RA_OF_ASC_NODE":252.1956,"ARG_OF_PERICENTER":151.3691,"MEAN_ANOMALY":208.775,"EPHEMERIS_TYPE":0,"CLASSIFICATION_TYPE":"U","NORAD_CAT_ID":56950,"ELEMENT_SET_NO":999,"REV_AT_EPOCH":15945,"BSTAR":0.00034421,"MEAN_MOTION_DOT":7.0e-5,"MEAN_MOTION_DDOT":0},{"OBJECT_NAME":"BLACKJACK ACES-2","OBJECT_ID":"2023-084Z","EPOCH":"2026-04-27T08:45:47.670912","MEAN_MOTION":15.18215178,"ECCENTRICITY":0.0002827,"INCLINATION":97.6124,"RA_OF_ASC_NODE":252.2894,"ARG_OF_PERICENTER":122.9546,"MEAN_ANOMALY":237.196,"EPHEMERIS_TYPE":0,"CLASSIFICATION_TYPE":"U","NORAD_CAT_ID":56955,"ELEMENT_SET_NO":999,"REV_AT_EPOCH":15946,"BSTAR":0.0004536,"MEAN_MOTION_DOT":9.216e-5,"MEAN_MOTION_DDOT":0},{"OBJECT_NAME":"BLACKJACK ACES-1","OBJECT_ID":"2023-084AA","EPOCH":"2026-04-27T08:28:55.992576","MEAN_MOTION":15.18434218,"ECCENTRICITY":0.0002823,"INCLINATION":97.6113,"RA_OF_ASC_NODE":252.0568,"ARG_OF_PERICENTER":106.7101,"MEAN_ANOMALY":253.4443,"EPHEMERIS_TYPE":0,"CLASSIFICATION_TYPE":"U","NORAD_CAT_ID":56956,"ELEMENT_SET_NO":999,"REV_AT_EPOCH":10918,"BSTAR":0.00044263,"MEAN_MOTION_DOT":9.048e-5,"MEAN_MOTION_DDOT":0},{"OBJECT_NAME":"ION SCV-011","OBJECT_ID":"2023-084AB","EPOCH":"2026-04-27T09:34:45.918048","MEAN_MOTION":15.28328423,"ECCENTRICITY":0.0006721,"INCLINATION":98.1383,"RA_OF_ASC_NODE":299.9936,"ARG_OF_PERICENTER":204.6472,"MEAN_ANOMALY":155.4445,"EPHEMERIS_TYPE":0,"CLASSIFICATION_TYPE":"U","NORAD_CAT_ID":56957,"ELEMENT_SET_NO":999,"REV_AT_EPOCH":15805,"BSTAR":0.00025026,"MEAN_MOTION_DOT":6.822e-5,"MEAN_MOTION_DDOT":0},{"OBJECT_NAME":"GHOST-3","OBJECT_ID":"2023-084AC","EPOCH":"2026-04-27T09:18:22.509792","MEAN_MOTION":15.46171608,"ECCENTRICITY":0.0007537,"INCLINATION":97.6143,"RA_OF_ASC_NODE":263.324,"ARG_OF_PERICENTER":119.2468,"MEAN_ANOMALY":240.9535,"EPHEMERIS_TYPE":0,"CLASSIFICATION_TYPE":"U","NORAD_CAT_ID":56958,"ELEMENT_SET_NO":999,"REV_AT_EPOCH":16016,"BSTAR":0.00048011,"MEAN_MOTION_DOT":0.00023526,"MEAN_MOTION_DDOT":0},{"OBJECT_NAME":"TOMORROW-R2","OBJECT_ID":"2023-084AG","EPOCH":"2026-04-27T09:56:55.171680","MEAN_MOTION":15.83589401,"ECCENTRICITY":0.0001733,"INCLINATION":97.5927,"RA_OF_ASC_NODE":275.413,"ARG_OF_PERICENTER":107.1277,"MEAN_ANOMALY":253.0181,"EPHEMERIS_TYPE":0,"CLASSIFICATION_TYPE":"U","NORAD_CAT_ID":56962,"ELEMENT_SET_NO":999,"REV_AT_EPOCH":16097,"BSTAR":0.00078173,"MEAN_MOTION_DOT":0.0017353,"MEAN_MOTION_DDOT":0},{"OBJECT_NAME":"AFR-1","OBJECT_ID":"2023-084AJ","EPOCH":"2026-04-27T10:12:24.751872","MEAN_MOTION":15.28094377,"ECCENTRICITY":0.0011358,"INCLINATION":97.6189,"RA_OF_ASC_NODE":252.936,"ARG_OF_PERICENTER":151.4537,"MEAN_ANOMALY":208.7326,"EPHEMERIS_TYPE":0,"CLASSIFICATION_TYPE":"U","NORAD_CAT_ID":56964,"ELEMENT_SET_NO":999,"REV_AT_EPOCH":15947,"BSTAR":0.00022911,"MEAN_MOTION_DOT":6.209e-5,"MEAN_MOTION_DDOT":0},{"OBJECT_NAME":"METEOR-M2 3","OBJECT_ID":"2023-091A","EPOCH":"2026-04-27T12:13:45.172704","MEAN_MOTION":14.24042342,"ECCENTRICITY":0.0003209,"INCLINATION":98.6122,"RA_OF_ASC_NODE":173.5144,"ARG_OF_PERICENTER":333.4801,"MEAN_ANOMALY":26.6213,"EPHEMERIS_TYPE":0,"CLASSIFICATION_TYPE":"U","NORAD_CAT_ID":57166,"ELEMENT_SET_NO":999,"REV_AT_EPOCH":14730,"BSTAR":2.2784e-5,"MEAN_MOTION_DOT":9.0e-8,"MEAN_MOTION_DDOT":0},{"OBJECT_NAME":"UMKA 1 (RS40S)","OBJECT_ID":"2023-091G","EPOCH":"2026-04-27T11:40:43.231008","MEAN_MOTION":15.20237736,"ECCENTRICITY":0.0011257,"INCLINATION":97.5095,"RA_OF_ASC_NODE":176.3911,"ARG_OF_PERICENTER":299.3902,"MEAN_ANOMALY":60.6209,"EPHEMERIS_TYPE":0,"CLASSIFICATION_TYPE":"U","NORAD_CAT_ID":57172,"ELEMENT_SET_NO":999,"REV_AT_EPOCH":15630,"BSTAR":0.00029019,"MEAN_MOTION_DOT":6.234e-5,"MEAN_MOTION_DDOT":0},{"OBJECT_NAME":"2023-091H","OBJECT_ID":"2023-091H","EPOCH":"2026-04-27T11:57:21.304800","MEAN_MOTION":15.27542014,"ECCENTRICITY":0.0008352,"INCLINATION":97.5089,"RA_OF_ASC_NODE":180.3141,"ARG_OF_PERICENTER":294.4588,"MEAN_ANOMALY":65.5779,"EPHEMERIS_TYPE":0,"CLASSIFICATION_TYPE":"U","NORAD_CAT_ID":57173,"ELEMENT_SET_NO":999,"REV_AT_EPOCH":15656,"BSTAR":0.00043959,"MEAN_MOTION_DOT":0.00011784,"MEAN_MOTION_DDOT":0},{"OBJECT_NAME":"2023-091J","OBJECT_ID":"2023-091J","EPOCH":"2026-04-27T11:41:42.408960","MEAN_MOTION":15.13582439,"ECCENTRICITY":0.001225,"INCLINATION":97.5103,"RA_OF_ASC_NODE":171.3079,"ARG_OF_PERICENTER":329.0012,"MEAN_ANOMALY":31.0495,"EPHEMERIS_TYPE":0,"CLASSIFICATION_TYPE":"U","NORAD_CAT_ID":57174,"ELEMENT_SET_NO":999,"REV_AT_EPOCH":15596,"BSTAR":0.00023287,"MEAN_MOTION_DOT":4.119e-5,"MEAN_MOTION_DDOT":0},{"OBJECT_NAME":"CUBEBEL 2 (EU11S)","OBJECT_ID":"2023-091K","EPOCH":"2026-04-27T12:20:54.852000","MEAN_MOTION":15.27965415,"ECCENTRICITY":0.0008412,"INCLINATION":97.5092,"RA_OF_ASC_NODE":180.3176,"ARG_OF_PERICENTER":296.2013,"MEAN_ANOMALY":63.8361,"EPHEMERIS_TYPE":0,"CLASSIFICATION_TYPE":"U","NORAD_CAT_ID":57175,"ELEMENT_SET_NO":999,"REV_AT_EPOCH":15656,"BSTAR":0.00050739,"MEAN_MOTION_DOT":0.00013794,"MEAN_MOTION_DDOT":0},{"OBJECT_NAME":"SITRO-AIS 5 (KATYS)","OBJECT_ID":"2023-091L","EPOCH":"2026-04-27T11:26:11.344416","MEAN_MOTION":15.28292256,"ECCENTRICITY":0.0009909,"INCLINATION":97.5099,"RA_OF_ASC_NODE":180.9311,"ARG_OF_PERICENTER":281.2358,"MEAN_ANOMALY":78.7767,"EPHEMERIS_TYPE":0,"CLASSIFICATION_TYPE":"U","NORAD_CAT_ID":57176,"ELEMENT_SET_NO":999,"REV_AT_EPOCH":15659,"BSTAR":0.00045446,"MEAN_MOTION_DOT":0.00012474,"MEAN_MOTION_DDOT":0},{"OBJECT_NAME":"ZORKIY-2M 1","OBJECT_ID":"2023-091M","EPOCH":"2026-04-27T11:23:14.335872","MEAN_MOTION":15.20242588,"ECCENTRICITY":0.0011824,"INCLINATION":97.5134,"RA_OF_ASC_NODE":176.6164,"ARG_OF_PERICENTER":295.7539,"MEAN_ANOMALY":64.2475,"EPHEMERIS_TYPE":0,"CLASSIFICATION_TYPE":"U","NORAD_CAT_ID":57177,"ELEMENT_SET_NO":999,"REV_AT_EPOCH":15629,"BSTAR":0.00032288,"MEAN_MOTION_DOT":6.947e-5,"MEAN_MOTION_DDOT":0},{"OBJECT_NAME":"CUBESX-HSE 3 (RS42S)","OBJECT_ID":"2023-091N","EPOCH":"2026-04-27T12:08:19.854240","MEAN_MOTION":15.29935821,"ECCENTRICITY":0.0009355,"INCLINATION":97.5128,"RA_OF_ASC_NODE":182.4955,"ARG_OF_PERICENTER":269.6771,"MEAN_ANOMALY":90.3397,"EPHEMERIS_TYPE":0,"CLASSIFICATION_TYPE":"U","NORAD_CAT_ID":57178,"ELEMENT_SET_NO":999,"REV_AT_EPOCH":15667,"BSTAR":0.00046968,"MEAN_MOTION_DOT":0.00013561,"MEAN_MOTION_DDOT":0},{"OBJECT_NAME":"MONITOR-3 (RS58S)","OBJECT_ID":"2023-091Q","EPOCH":"2026-04-27T11:43:18.984288","MEAN_MOTION":15.26821456,"ECCENTRICITY":0.0010191,"INCLINATION":97.5122,"RA_OF_ASC_NODE":180.5939,"ARG_OF_PERICENTER":278.0269,"MEAN_ANOMALY":81.9813,"EPHEMERIS_TYPE":0,"CLASSIFICATION_TYPE":"U","NORAD_CAT_ID":57180,"ELEMENT_SET_NO":999,"REV_AT_EPOCH":15655,"BSTAR":0.0004023,"MEAN_MOTION_DOT":0.00010548,"MEAN_MOTION_DDOT":0},{"OBJECT_NAME":"MONITOR-4 (RS57S)","OBJECT_ID":"2023-091S","EPOCH":"2026-04-27T11:17:43.130976","MEAN_MOTION":15.26916256,"ECCENTRICITY":0.0010203,"INCLINATION":97.5116,"RA_OF_ASC_NODE":180.544,"ARG_OF_PERICENTER":278.5854,"MEAN_ANOMALY":81.4229,"EPHEMERIS_TYPE":0,"CLASSIFICATION_TYPE":"U","NORAD_CAT_ID":57182,"ELEMENT_SET_NO":999,"REV_AT_EPOCH":15655,"BSTAR":0.00041818,"MEAN_MOTION_DOT":0.00011,"MEAN_MOTION_DDOT":0},{"OBJECT_NAME":"MONITOR-2 (RS39S)","OBJECT_ID":"2023-091U","EPOCH":"2026-04-27T12:17:19.226112","MEAN_MOTION":15.18435885,"ECCENTRICITY":0.0009666,"INCLINATION":97.5116,"RA_OF_ASC_NODE":176.1302,"ARG_OF_PERICENTER":291.3241,"MEAN_ANOMALY":68.6961,"EPHEMERIS_TYPE":0,"CLASSIFICATION_TYPE":"U","NORAD_CAT_ID":57184,"ELEMENT_SET_NO":999,"REV_AT_EPOCH":15626,"BSTAR":0.00027605,"MEAN_MOTION_DOT":5.621e-5,"MEAN_MOTION_DDOT":0},{"OBJECT_NAME":"SVYATOBOR 1 (RS60S)","OBJECT_ID":"2023-091X","EPOCH":"2026-04-27T10:37:10.365312","MEAN_MOTION":15.2574589,"ECCENTRICITY":0.0007887,"INCLINATION":97.5129,"RA_OF_ASC_NODE":181.0044,"ARG_OF_PERICENTER":268.7386,"MEAN_ANOMALY":91.2948,"EPHEMERIS_TYPE":0,"CLASSIFICATION_TYPE":"U","NORAD_CAT_ID":57187,"ELEMENT_SET_NO":999,"REV_AT_EPOCH":15657,"BSTAR":0.00043423,"MEAN_MOTION_DOT":0.00011021,"MEAN_MOTION_DDOT":0},{"OBJECT_NAME":"HORS 1","OBJECT_ID":"2023-091Y","EPOCH":"2026-04-27T11:55:27.573888","MEAN_MOTION":15.25833256,"ECCENTRICITY":0.0007382,"INCLINATION":97.5107,"RA_OF_ASC_NODE":180.8283,"ARG_OF_PERICENTER":268.6463,"MEAN_ANOMALY":91.3929,"EPHEMERIS_TYPE":0,"CLASSIFICATION_TYPE":"U","NORAD_CAT_ID":57188,"ELEMENT_SET_NO":999,"REV_AT_EPOCH":15658,"BSTAR":0.00036885,"MEAN_MOTION_DOT":9.372e-5,"MEAN_MOTION_DDOT":0},{"OBJECT_NAME":"VIZARD-METEO (RS38S)","OBJECT_ID":"2023-091Z","EPOCH":"2026-04-27T12:03:11.947104","MEAN_MOTION":15.34414995,"ECCENTRICITY":0.0006256,"INCLINATION":97.5122,"RA_OF_ASC_NODE":186.0296,"ARG_OF_PERICENTER":242.1306,"MEAN_ANOMALY":117.9303,"EPHEMERIS_TYPE":0,"CLASSIFICATION_TYPE":"U","NORAD_CAT_ID":57189,"ELEMENT_SET_NO":999,"REV_AT_EPOCH":15691,"BSTAR":0.00051441,"MEAN_MOTION_DOT":0.00017092,"MEAN_MOTION_DDOT":0},{"OBJECT_NAME":"SITRO-AIS 6 (CHIRKIN)","OBJECT_ID":"2023-091AC","EPOCH":"2026-04-27T11:22:04.514304","MEAN_MOTION":15.25078053,"ECCENTRICITY":0.0010293,"INCLINATION":97.5107,"RA_OF_ASC_NODE":180.3067,"ARG_OF_PERICENTER":286.4031,"MEAN_ANOMALY":73.6075,"EPHEMERIS_TYPE":0,"CLASSIFICATION_TYPE":"U","NORAD_CAT_ID":57192,"ELEMENT_SET_NO":999,"REV_AT_EPOCH":15655,"BSTAR":0.00026327,"MEAN_MOTION_DOT":6.52e-5,"MEAN_MOTION_DDOT":0},{"OBJECT_NAME":"SITRO-AIS 8 (ANOKHIN)","OBJECT_ID":"2023-091AD","EPOCH":"2026-04-27T12:19:18.809760","MEAN_MOTION":15.30778741,"ECCENTRICITY":0.0009103,"INCLINATION":97.5093,"RA_OF_ASC_NODE":182.3595,"ARG_OF_PERICENTER":276.3994,"MEAN_ANOMALY":83.621,"EPHEMERIS_TYPE":0,"CLASSIFICATION_TYPE":"U","NORAD_CAT_ID":57193,"ELEMENT_SET_NO":999,"REV_AT_EPOCH":15669,"BSTAR":0.00048511,"MEAN_MOTION_DOT":0.00014381,"MEAN_MOTION_DDOT":0}]
